KUIPER-00095            
1 65134U 25171C   25308.66670139 -.00595474  00000+0 -18319-1 0  9999
2 65134  51.8759 353.6954 0004729  60.4662 253.8017 15.35561626  5660
KUIPER-00096            
1 65135U 25171D   25308.66670139 -.00761135  00000+0 -40715-1 0  9994
2 65135  51.8853 354.7715 0011096  71.5321  75.0728 15.17125627  5797
KUIPER-00097            
1 65136U 25171E   25308.66670139  .00017732  00000+0  10847-2 0  9994
2 65136  51.8902 356.3079 0008697  83.5967 327.6715 15.10268854  4587
KUIPER-00098            
1 65137U 25171F   25308.66670139 -.00989873  00000+0 -77444-1 0  9996
2 65137  51.8899 357.2847 0007356  76.9198 274.2177 15.03315696  3575
KUIPER-00099            
1 65138U 25171G   25308.66670139 -.00711741  00000+0 -27298-1 0  9996
2 65138  51.8800 353.7689 0007281  80.8421 227.5654 15.28580987  4850
KUIPER-00100            
1 65139U 25171H   25308.66670139 -.00049988  00000+0 -14975-2 0  9993
2 65139  51.8784 353.5327 0004273  55.4447 349.5466 15.33949188  5791
KUIPER-00102            
1 65140U 25171J   25308.66670139 -.00378216  00000+0 -13636-1 0  9996
2 65140  51.8789 353.9185 0008599  61.7097 141.8669 15.29589331  5850
KUIPER-00103            
1 65141U 25171K   25308.66670139  .00027579  00000+0  36406-2 0  9999
2 65141  51.8994   3.4362 0007033  83.1580  98.7595 14.79817115  4204
